NORAD_CAT_ID,OBJECT_NAME,OBJECT_TYPE,EPOCH,MEAN_MOTION,ECCENTRICITY,INCLINATION,RA_OF_ASC_NODE,ARG_OF_PERICENTER,MEAN_ANOMALY,BSTAR,MEAN_MOTION_DOT,MEAN_MOTION_DDOT,TLE_LINE0,TLE_LINE1,TLE_LINE2,SEMIMAJOR_AXIS,PERIOD,APOGEE,PERIGEE,DECAYED
54000.0,STARLINK-5088,PAYLOAD,2023-06-17 06:18:45,15.08828934,0.0001744,53.2171,357.4429,79.9183,280.2005,-2.3169e-05,-6.57e-06,0.0,0 STARLINK-5088,1 54000U 22125AN  23168.26302099 -.00000657  00000-0 -23169-4 0  9997,2 54000  53.2171 357.4429 0001744  79.9183 280.2005 15.08828934 39240,6917.914,95.438,540.986,538.573,0.0
54000.0,STARLINK-5088,PAYLOAD,2023-06-17 12:40:17,15.08832889,0.0001391,53.2176,356.2529,82.8969,277.2181,-5.5433e-05,-1.17e-05,0.0,0 STARLINK-5088,1 54000U 22125AN  23168.52797934 -.00001170  00000-0 -55433-4 0  9992,2 54000  53.2176 356.2529 0001391  82.8969 277.2181 15.08832889 39218,6917.902,95.438,540.729,538.805,0.0
54000.0,STARLINK-5088,PAYLOAD,2023-06-17 19:01:50,15.08825395,9.31e-05,53.2176,355.0626,86.9371,273.1728,-0.00013399,-2.419e-05,0.0,0 STARLINK-5088,1 54000U 22125AN  23168.79294646 -.00002419  00000-0 -13399-3 0  9994,2 54000  53.2176 355.0626 0000931  86.9371 273.1728 15.08825395 39254,6917.925,95.438,540.434,539.146,0.0
54000.0,STARLINK-5088,PAYLOAD,2023-06-18 12:31:04,15.08839223,8.99e-05,53.2176,351.793,78.7377,281.3716,5.4128e-06,-2.02e-06,0.0,0 STARLINK-5088,1 54000U 22125AN  23169.52157786 -.00000202  00000-0  54128-5 0  9993,2 54000  53.2176 351.7930 0000899  78.7377 281.3716 15.08839223 39368,6917.883,95.438,540.37,539.126,0.0
54000.0,STARLINK-5088,PAYLOAD,2023-06-18 18:52:36,15.08843157,9.44e-05,53.2164,350.604,69.1385,290.9709,0.00015209,2.134e-05,0.0,0 STARLINK-5088,1 54000U 22125AN  23169.78653627  .00002134  00000-0  15209-3 0  9996,2 54000  53.2164 350.6040 0000944  69.1385 290.9709 15.08843157 39470,6917.871,95.437,540.389,539.083,0.0
54000.0,STARLINK-5088,PAYLOAD,2023-06-19 12:21:51,15.08839888,9.86e-05,53.2167,347.3332,60.3853,299.7237,0.00039555,6.013e-05,0.0,0 STARLINK-5088,1 54000U 22125AN  23170.51518021  .00006013  00000-0  39555-3 0  9997,2 54000  53.2167 347.3332 0000986  60.3853 299.7237 15.08839888 39513,6917.881,95.438,540.428,539.064,0.0
54000.0,STARLINK-5088,PAYLOAD,2023-06-19 18:43:23,15.08854987,9.98e-05,53.2165,346.1434,58.3465,301.7624,0.00052014,8.003e-05,0.0,0 STARLINK-5088,1 54000U 22125AN  23170.78013516  .00008003  00000-0  52014-3 0  9991,2 54000  53.2165 346.1434 0000998  58.3465 301.7624 15.08854987 39555,6917.835,95.437,540.39,539.009,0.0
54000.0,STARLINK-5088,PAYLOAD,2023-06-20 16:58:47,15.08849375,0.0001005,53.217,341.9798,58.3827,301.7263,0.00011752,1.584e-05,0.0,0 STARLINK-5088,1 54000U 22125AN  23171.70749358  .00001584  00000-0  11752-3 0  9995,2 54000  53.2170 341.9798 0001005  58.3827 301.7263 15.08849375 39766,6917.852,95.437,540.412,539.021,0.0
54000.0,STARLINK-5088,PAYLOAD,2023-06-21 18:24:57,15.08841338,0.0001094,53.2174,337.2221,52.2924,307.8167,3.6183e-05,2.88e-06,0.0,0 STARLINK-5088,1 54000U 22125AN  23172.76733679  .00000288  00000-0  36183-4 0  9997,2 54000  53.2174 337.2221 0001094  52.2924 307.8167 15.08841338 39927,6917.876,95.437,540.498,538.984,0.0
54000.0,STARLINK-5088,PAYLOAD,2023-06-22 10:18:49,15.08833445,7.43e-05,53.2162,334.2467,121.9397,238.1668,9.062e-06,-1.43e-06,0.0,0 STARLINK-5088,1 54000U 22125AN  23173.42973950 -.00000143  00000-0  90620-5 0  9997,2 54000  53.2162 334.2467 0000743 121.9397 238.1668 15.08833445 40026,6917.9,95.438,540.279,539.251,0.0
54000.0,STARLINK-5088,PAYLOAD,2023-06-22 18:15:45,15.08844476,8.54e-05,53.217,332.7627,74.0758,286.0328,0.00018524,2.662e-05,0.0,0 STARLINK-5088,1 54000U 22125AN  23173.76093780  .00002662  00000-0  18524-3 0  9996,2 54000  53.2170 332.7627 0000854  74.0758 286.0328 15.08844476 40074,6917.867,95.437,540.322,539.141,0.0
54000.0,STARLINK-5088,PAYLOAD,2023-06-23 19:41:54,15.0885454,7.95e-05,53.217,328.003,95.7373,264.371,0.0002798,4.17e-05,0.0,0 STARLINK-5088,1 54000U 22125AN  23174.82077218  .00004170  00000-0  27980-3 0  9994,2 54000  53.2170 328.0030 0000795  95.7373 264.3710 15.08854540 40232,6917.836,95.437,540.251,539.151,0.0
54000.0,STARLINK-5088,PAYLOAD,2023-06-24 03:38:50,15.08843548,7.3e-05,53.2177,326.5142,100.4339,259.6735,0.00012041,1.629e-05,0.0,0 STARLINK-5088,1 54000U 22125AN  23175.15197609  .00001629  00000-0  12041-3 0  9996,2 54000  53.2177 326.5142 0000730 100.4339 259.6735 15.08843548 40286,6917.87,95.437,540.24,539.23,0.0
54000.0,STARLINK-5088,PAYLOAD,2023-06-25 03:29:37,15.08840941,7.22e-05,53.2171,322.056,107.6337,252.4734,4.7139e-05,4.63e-06,0.0,0 STARLINK-5088,1 54000U 22125AN  23176.14557849  .00000463  00000-0  47139-4 0  9994,2 54000  53.2171 322.0560 0000722 107.6337 252.4734 15.08840941 40434,6917.878,95.437,540.242,539.243,0.0
54000.0,STARLINK-5088,PAYLOAD,2023-06-26 16:03:30,15.08838623,9.06e-05,53.217,315.2164,98.5648,261.5447,3.6238e-05,2.89e-06,0.0,0 STARLINK-5088,1 54000U 22125AN  23177.66910301  .00000289  00000-0  36238-4 0  9992,2 54000  53.2170 315.2164 0000906  98.5648 261.5447 15.08838623 40665,6917.885,95.438,540.376,539.123,0.0
54000.0,STARLINK-5088,PAYLOAD,2023-06-28 01:26:36,15.08839294,8.86e-05,53.217,308.9747,92.6975,267.4118,2.8657e-05,1.68e-06,0.0,0 STARLINK-5088,1 54000U 22125AN  23179.06014503  .00000168  00000-0  28657-4 0  9999,2 54000  53.2170 308.9747 0000886  92.6975 267.4118 15.08839294 40874,6917.883,95.438,540.36,539.135,0.0
54000.0,STARLINK-5088,PAYLOAD,2023-06-28 07:48:09,15.08774257,0.0001238,53.2168,307.785,98.8708,261.2425,0.00086299,0.00013449,0.0,0 STARLINK-5088,1 54000U 22125AN  23179.32511210  .00013449  00000-0  86299-3 0  9996,2 54000  53.2168 307.7850 0001238  98.8708 261.2425 15.08774257 40912,6918.081,95.442,540.803,539.09,0.0
54000.0,STARLINK-5088,PAYLOAD,2023-06-28 18:55:53,15.08753459,0.0001422,53.2187,305.7042,88.6801,271.4354,0.0013505,0.0002122,0.0,0 STARLINK-5088,1 54000U 22125AN  23179.78881045  .00021220  00000-0  13505-2 0  9997,2 54000  53.2187 305.7042 0001422  88.6801 271.4354 15.08753459 40982,6918.145,95.443,540.994,539.026,0.0
54000.0,STARLINK-5088,PAYLOAD,2023-06-29 07:38:56,15.08833987,9.73e-05,53.219,303.325,103.2421,256.8679,5.1731e-05,5.36e-06,0.0,0 STARLINK-5088,1 54000U 22125AN  23180.31871102  .00000536  00000-0  51731-4 0  9993,2 54000  53.2190 303.3250 0000973 103.2421 256.8679 15.08833987 41065,6917.899,95.438,540.437,539.091,0.0
54000.0,STARLINK-5088,PAYLOAD,2023-06-29 17:11:14,15.08843589,8.51e-05,53.2171,301.5396,102.3817,257.7271,8.7393e-05,1.104e-05,0.0,0 STARLINK-5088,1 54000U 22125AN  23180.71614406  .00001104  00000-0  87393-4 0  9994,2 54000  53.2171 301.5396 0000851 102.3817 257.7271 15.08843589 41123,6917.869,95.437,540.323,539.146,0.0
54000.0,STARLINK-5088,PAYLOAD,2023-06-30 15:26:38,15.08848213,7.86e-05,53.2172,297.3768,93.4108,266.6974,0.00012511,1.704e-05,0.0,0 STARLINK-5088,1 54000U 22125AN  23181.64350044  .00001704  00000-0  12511-3 0  9997,2 54000  53.2172 297.3768 0000786  93.4108 266.6974 15.08848213 41262,6917.855,95.437,540.264,539.177,0.0
54000.0,STARLINK-5088,PAYLOAD,2023-07-02 00:49:44,15.08844458,7.73e-05,53.217,291.132,83.0746,277.0334,2.071e-05,4.2e-07,0.0,0 STARLINK-5088,1 54000U 22125AN  23183.03454045  .00000042  00000-0  20710-4 0  9993,2 54000  53.2170 291.1320 0000773  83.0746 277.0334 15.08844458 41471,6917.867,95.437,540.267,539.197,0.0
54000.0,STARLINK-5088,PAYLOAD,2023-07-02 08:46:40,15.08830764,8.58e-05,53.217,289.6457,79.6036,280.5053,-6.9082e-05,-1.387e-05,0.0,0 STARLINK-5088,1 54000U 22125AN  23183.36575231 -.00001387  00000-0 -69082-4 0  9990,2 54000  53.2170 289.6457 0000858  79.6036 280.5053 15.08830764 41529,6917.909,95.438,540.367,539.18,0.0
54000.0,STARLINK-5088,PAYLOAD,2023-07-02 13:32:50,15.08836126,8.39e-05,53.2169,288.7535,80.1805,279.9282,-1.5115e-05,-5.28e-06,0.0,0 STARLINK-5088,1 54000U 22125AN  23183.56446775 -.00000528  00000-0 -15115-4 0  9996,2 54000  53.2169 288.7535 0000839  80.1805 279.9282 15.08836126 41551,6917.892,95.438,540.338,539.177,0.0
54000.0,STARLINK-5088,PAYLOAD,2023-07-03 11:48:13,15.08841353,8.58e-05,53.2166,284.5893,83.8518,276.2572,3.717e-05,3.04e-06,0.0,0 STARLINK-5088,1 54000U 22125AN  23184.49182257  .00000304  00000-0  37170-4 0  9996,2 54000  53.2166 284.5893 0000858  83.8518 276.2572 15.08841353 41696,6917.876,95.437,540.335,539.148,0.0
54000.0,STARLINK-5088,PAYLOAD,2023-07-04 02:06:41,15.08830623,9.87e-05,53.2161,281.9103,125.3516,234.7568,0.00010112,1.322e-05,0.0,0 STARLINK-5088,1 54000U 22125AN  23185.08798562  .00001322  00000-0  10112-3 0  9991,2 54000  53.2161 281.9103 0000987 125.3516 234.7568 15.08830623 41781,6917.909,95.438,540.457,539.091,0.0
54000.0,STARLINK-5088,PAYLOAD,2023-07-04 11:39:01,15.08826617,8.19e-05,53.2167,280.1302,78.8301,281.2783,6.1546e-05,6.92e-06,0.0,0 STARLINK-5088,1 54000U 22125AN  23185.48543396  .00000692  00000-0  61546-4 0  9995,2 54000  53.2167 280.1302 0000819  78.8301 281.2783 15.08826617 41848,6917.921,95.438,540.353,539.22,0.0
54000.0,STARLINK-5088,PAYLOAD,2023-07-04 22:46:43,15.08834483,7.41e-05,53.2166,278.048,81.7639,278.3437,2.4352e-05,1e-06,0.0,0 STARLINK-5088,1 54000U 22125AN  23185.94911152  .00000100  00000-0  24352-4 0  9993,2 54000  53.2166 278.0480 0000741  81.7639 278.3437 15.08834483 41912,6917.897,95.438,540.275,539.25,0.0
54000.0,STARLINK-5088,PAYLOAD,2023-07-05 08:19:01,15.08886207,5.43e-05,53.2166,276.2631,91.2519,268.8536,-0.00060781,-9.96e-05,0.0,0 STARLINK-5088,1 54000U 22125AN  23186.34654771 -.00009960  00000-0 -60781-3 0  9999,2 54000  53.2166 276.2631 0000543  91.2519 268.8536 15.08886207 41974,6917.739,95.435,539.98,539.229,0.0
54000.0,STARLINK-5088,PAYLOAD,2023-07-05 14:40:34,15.0884082,7.55e-05,53.2168,275.0747,87.6474,272.4605,4.0344e-05,3.55e-06,0.0,0 STARLINK-5088,1 54000U 22125AN  23186.61150876  .00000355  00000-0  40344-4 0  9997,2 54000  53.2168 275.0747 0000755  87.6474 272.4605 15.08840820 42010,6917.878,95.438,540.265,539.221,0.0
